ONEWEB-0461             
1 51649U 22012AD  25280.81727132 -.00000018  00000+0 -79396-4 0  9998
2 51649  87.9091  56.0296 0001850  96.2370 263.8972 13.17648708180652
ONEWEB-0463             
1 51650U 22012AE  25280.79871212 -.00000057  00000+0 -17946-3 0  9991
2 51650  87.9076  56.0889 0001621  95.2109 264.9208 13.17649244180436
ONEWEB-0464             
1 51651U 22012AF  25280.44231409  .00000350  00000+0  96612-3 0  9993
2 51651  87.8749  86.6801 0001463 100.2103 259.9190 13.10377099176226
ONEWEB-0468             
1 51652U 22012AG  25280.44896006  .00000602  00000+0  16878-2 0  9999
2 51652  87.8753  86.6712 0001515  94.6917 265.4384 13.10375478176204
ONEWEB-0473             
1 51653U 22012AH  25280.81579500 -.00000176  00000+0 -54159-3 0  9991
2 51653  87.8751  86.6014 0001496  88.7822 271.3477 13.10376153176250
ONEWEB-0474             
1 51654U 22012AJ  25280.50205202 -.00000448  00000+0 -13205-2 0  9991
2 51654  87.8753  86.6261 0001350  96.0120 264.1161 13.10373227176203
ONEWEB-0475             
1 51655U 22012AK  25280.81052382 -.00000023  00000+0 -92527-4 0  9990
2 51655  87.9087  56.0710 0000873  97.3575 262.7655 13.17649436180451
ONEWEB-0490             
1 54113U 22138A   25280.51302488  .00000006  00000+0 -17146-4 0  9997
2 54113  87.9284 355.2117 0001793 106.0915 254.0416 13.19726333143503
